[Satellite]
VERSION=1.1
NAME=RADUGA 13 [-]
NICKNAME=RADUGA 13 [-]
TLE1=1 14307U 83088A   17185.13101463 -.00000191  00000-0  00000-0 0  9995
TLE2=2 14307  14.9722 341.8326 0016609 342.5938   8.0884  0.98175413 86836
